{
  "type": "FeatureCollection",
  "features": [
    {
      "type": "Feature",
      "properties": {
        "norad_id": 44873,
        "name": "CSG-1",
        "group": "resource",
        "lat": -34.309707693038696,
        "lon": -21.061520427902213,
        "alt_km": 629.4283804415873,
        "timestamp": "2025-12-08T23:34:03.627334+00:00",
        "meta_object_name": "CSG-1",
        "meta_object_id": "2019-092A",
        "meta_epoch": "2025-12-08T14:30:04.849920",
        "meta_mean_motion": 14.8215625,
        "meta_eccentricity": 0.00014648,
        "meta_inclination": 97.8812,
        "meta_ra_of_asc_node": 163.9906,
        "meta_arg_of_pericenter": 85.7346,
        "meta_mean_anomaly": 274.4035,
        "meta_ephemeris_type": 0,
        "meta_classification_type": "U",
        "meta_norad_cat_id": 44873,
        "meta_element_set_no": 999,
        "meta_rev_at_epoch": 32324,
        "meta_bstar": 0.00016588406,
        "meta_mean_motion_dot": 1.269e-05,
        "meta_mean_motion_ddot": 0,
        "tle_line1": "1 44873U 19092A   25342.60422280  .00001269  00000+0  16588-3 0  9995",
        "tle_line2": "2 44873  97.8812 163.9906 0001464  85.7346 274.4035 14.82156250323248"
      },
      "geometry": {
        "type": "Point",
        "coordinates": [
          -21.061520427902213,
          -34.309707693038696
        ]
      }
    },
    {
      "type": "Feature",
      "properties": {
        "norad_id": 46277,
        "name": "NEMO-HD",
        "group": "resource",
        "lat": -50.878916980919215,
        "lon": 51.09705170186375,
        "alt_km": 453.0062330997089,
        "timestamp": "2025-12-08T23:34:03.627344+00:00",
        "meta_object_name": "NEMO-HD",
        "meta_object_id": "2020-061F",
        "meta_epoch": "2025-12-08T14:26:06.496512",
        "meta_mean_motion": 15.40196834,
        "meta_eccentricity": 0.00021263,
        "meta_inclination": 97.2211,
        "meta_ra_of_asc_node": 41.7523,
        "meta_arg_of_pericenter": 60.992,
        "meta_mean_anomaly": 299.154,
        "meta_ephemeris_type": 0,
        "meta_classification_type": "U",
        "meta_norad_cat_id": 46277,
        "meta_element_set_no": 999,
        "meta_rev_at_epoch": 29260,
        "meta_bstar": 0.00033970747,
        "meta_mean_motion_dot": 0.00013568,
        "meta_mean_motion_ddot": 0,
        "tle_line1": "1 46277U 20061F   25342.60146408  .00013568  00000+0  33971-3 0  9998",
        "tle_line2": "2 46277  97.2211  41.7523 0002126  60.9920 299.1540 15.40196834292609"
      },
      "geometry": {
        "type": "Point",
        "coordinates": [
          51.09705170186375,
          -50.878916980919215
        ]
      }
    },
    {
      "type": "Feature",
      "properties": {
        "norad_id": 46984,
        "name": "SENTINEL-6A",
        "group": "resource",
        "lat": 46.471930629533006,
        "lon": -161.97471874762581,
        "alt_km": 1337.5202798554647,
        "timestamp": "2025-12-08T23:34:03.627354+00:00",
        "meta_object_name": "SENTINEL-6A",
        "meta_object_id": "2020-086A",
        "meta_epoch": "2025-12-08T13:55:31.002816",
        "meta_mean_motion": 12.80930453,
        "meta_eccentricity": 0.00077381,
        "meta_inclination": 66.0392,
        "meta_ra_of_asc_node": 170.9479,
        "meta_arg_of_pericenter": 269.2212,
        "meta_mean_anomaly": 90.7916,
        "meta_ephemeris_type": 0,
        "meta_classification_type": "U",
        "meta_norad_cat_id": 46984,
        "meta_element_set_no": 999,
        "meta_rev_at_epoch": 23591,
        "meta_bstar": 4.6976098e-05,
        "meta_mean_motion_dot": -5e-07,
        "meta_mean_motion_ddot": 0,
        "tle_line1": "1 46984U 20086A   25342.58021994 -.00000050  00000+0  46976-4 0  9992",
        "tle_line2": "2 46984  66.0392 170.9479 0007738 269.2212  90.7916 12.80930453235912"
      },
      "geometry": {
        "type": "Point",
        "coordinates": [
          -161.97471874762581,
          46.471930629533006
        ]
      }
    },
    {
      "type": "Feature",
      "properties": {
        "norad_id": 48079,
        "name": "GAOFEN-12 02",
        "group": "resource",
        "lat": 44.35679926577401,
        "lon": 164.8953911452999,
        "alt_km": 621.3179352886382,
        "timestamp": "2025-12-08T23:34:03.627365+00:00",
        "meta_object_name": "GAOFEN-12 02",
        "meta_object_id": "2021-026A",
        "meta_epoch": "2025-12-08T14:51:03.010176",
        "meta_mean_motion": 14.80668206,
        "meta_eccentricity": 0.00034499,
        "meta_inclination": 97.985,
        "meta_ra_of_asc_node": 336.6451,
        "meta_arg_of_pericenter": 109.0593,
        "meta_mean_anomaly": 251.0993,
        "meta_ephemeris_type": 0,
        "meta_classification_type": "U",
        "meta_norad_cat_id": 48079,
        "meta_element_set_no": 999,
        "meta_rev_at_epoch": 25356,
        "meta_bstar": 0.00014387497,
        "meta_mean_motion_dot": 1.053e-05,
        "meta_mean_motion_ddot": 0,
        "tle_line1": "1 48079U 21026A   25342.61878484  .00001053  00000+0  14387-3 0  9995",
        "tle_line2": "2 48079  97.9850 336.6451 0003449 109.0593 251.0993 14.80668206253564"
      },
      "geometry": {
        "type": "Point",
        "coordinates": [
          164.8953911452999,
          44.35679926577401
        ]
      }
    },
    {
      "type": "Feature",
      "properties": {
        "norad_id": 48268,
        "name": "PLEIADES NEO 3",
        "group": "resource",
        "lat": -8.520647071125333,
        "lon": -125.71439402554445,
        "alt_km": 628.1540676603918,
        "timestamp": "2025-12-08T23:34:03.627376+00:00",
        "meta_object_name": "PLEIADES NEO 3",
        "meta_object_id": "2021-034A",
        "meta_epoch": "2025-12-08T12:59:42.338400",
        "meta_mean_motion": 14.81671885,
        "meta_eccentricity": 0.00012572,
        "meta_inclination": 97.8951,
        "meta_ra_of_asc_node": 55.0427,
        "meta_arg_of_pericenter": 97.348,
        "meta_mean_anomaly": 262.7876,
        "meta_ephemeris_type": 0,
        "meta_classification_type": "U",
        "meta_norad_cat_id": 48268,
        "meta_element_set_no": 999,
        "meta_rev_at_epoch": 24942,
        "meta_bstar": 2.6887228e-05,
        "meta_mean_motion_dot": 1.6e-06,
        "meta_mean_motion_ddot": 0,
        "tle_line1": "1 48268U 21034A   25342.54146225  .00000160  00000+0  26887-4 0  9994",
        "tle_line2": "2 48268  97.8951  55.0427 0001257  97.3480 262.7876 14.81671885249426"
      },
      "geometry": {
        "type": "Point",
        "coordinates": [
          -125.71439402554445,
          -8.520647071125333
        ]
      }
    },
    {
      "type": "Feature",
      "properties": {
        "norad_id": 49070,
        "name": "PLEIADES NEO 4",
        "group": "resource",
        "lat": 8.323310938835249,
        "lon": 54.30959138810573,
        "alt_km": 625.868438957139,
        "timestamp": "2025-12-08T23:34:03.627386+00:00",
        "meta_object_name": "PLEIADES NEO 4",
        "meta_object_id": "2021-073E",
        "meta_epoch": "2025-12-08T20:17:17.873664",
        "meta_mean_motion": 14.81674316,
        "meta_eccentricity": 0.0001327,
        "meta_inclination": 97.8951,
        "meta_ra_of_asc_node": 55.3382,
        "meta_arg_of_pericenter": 95.8767,
        "meta_mean_anomaly": 264.2597,
        "meta_ephemeris_type": 0,
        "meta_classification_type": "U",
        "meta_norad_cat_id": 49070,
        "meta_element_set_no": 999,
        "meta_rev_at_epoch": 23318,
        "meta_bstar": 8.6617e-05,
        "meta_mean_motion_dot": 6.3e-06,
        "meta_mean_motion_ddot": 0,
        "tle_line1": "1 49070U 21073E   25342.84534576  .00000630  00000+0  86617-4 0  9991",
        "tle_line2": "2 49070  97.8951  55.3382 0001327  95.8767 264.2597 14.81674316233185"
      },
      "geometry": {
        "type": "Point",
        "coordinates": [
          54.30959138810573,
          8.323310938835249
        ]
      }
    },
    {
      "type": "Feature",
      "properties": {
        "norad_id": 49260,
        "name": "LANDSAT 9",
        "group": "resource",
        "lat": -3.1689967785399746,
        "lon": 51.60545508119948,
        "alt_km": 705.944830235836,
        "timestamp": "2025-12-08T23:34:03.627396+00:00",
        "meta_object_name": "LANDSAT 9",
        "meta_object_id": "2021-088A",
        "meta_epoch": "2025-12-08T15:20:31.418592",
        "meta_mean_motion": 14.57124628,
        "meta_eccentricity": 0.00011142,
        "meta_inclination": 98.2099,
        "meta_ra_of_asc_node": 50.8097,
        "meta_arg_of_pericenter": 94.4212,
        "meta_mean_anomaly": 265.7114,
        "meta_ephemeris_type": 0,
        "meta_classification_type": "U",
        "meta_norad_cat_id": 49260,
        "meta_element_set_no": 999,
        "meta_rev_at_epoch": 22325,
        "meta_bstar": 0.00021557005,
        "meta_mean_motion_dot": 9.26e-06,
        "meta_mean_motion_ddot": 0,
        "tle_line1": "1 49260U 21088A   25342.63925253  .00000926  00000+0  21557-3 0  9990",
        "tle_line2": "2 49260  98.2099  50.8097 0001114  94.4212 265.7114 14.57124628223258"
      },
      "geometry": {
        "type": "Point",
        "coordinates": [
          51.60545508119948,
          -3.1689967785399746
        ]
      }
    }
  ]
}